ENTRYSAT                
1 44429U 98067QP  20019.50481851  .00007709  00000-0  11993-3 0  9996
2 44429  51.6412   4.7540 0003316 117.1914 242.9415 15.54962133 31168
VCC C                   
1 44430U 98067QQ  20019.36177730  .00009496  00000-0  14384-3 0  9992
2 44430  51.6416   5.3035 0003353 125.0700 235.0606 15.55384365 29968
VCC B                   
1 44431U 98067QR  20019.34029304  .00006099  00000-0  97931-4 0  9990
2 44431  51.6420   5.9082 0003622 126.2934 233.8391 15.54516121 31071
DUCHIFAT-3              
1 44854U 19089C   20020.02021094  .00000208  00000-0  23312-4 0  9999
2 44854  36.9686 261.3973 0009801 293.2120  66.7587 14.98952443  5860
